*******************************************************************************
Ephemeris / WWW_USER Mon Mar 24 09:33:35 2025 Pasadena, USA      / Horizons    
*******************************************************************************
Target body name: (2018 KH3)                      {source: JPL#10}
Center body name: Earth (399)                     {source: DE441}
Center-site name: Mauna Kea
*******************************************************************************
Start time      : A.D. 2018-Nov-22 03:51:00.0000 UT      
Stop  time      : A.D. 2018-Nov-22 16:25:00.0000 UT      
Step-size       : 1 minutes
*******************************************************************************
Target pole/equ : undefined
Target radii    : undefined                                                    
Center geodetic : 204.5278, 19.8260847, 4.21024   {E-lon(deg),Lat(deg),Alt(km)}
Center cylindric: 204.5278, 6006.35451, 2151.0229 {E-lon(deg),Dxy(km),Dz(km)}
Center pole/equ : ITRF93                          {East-longitude positive}
Center radii    : 6378.137, 6378.137, 6356.752 km {Equator_a, b, pole_c}       
Target primary  : Sun
Vis. interferer : MOON (R_eq= 1737.400) km        {source: DE441}
Rel. light bend : Sun                             {source: DE441}
Rel. lght bnd GM: 1.3271E+11 km^3/s^2                                          
Small-body perts: Yes                             {source: SB441-N16}
Atmos refraction: NO (AIRLESS)
RA format       : HMS
Time format     : CAL 
Calendar mode   : Mixed Julian/Gregorian
RTS-only print  : NO       
EOP file        : eop.250321.p250617                                           
EOP coverage    : DATA-BASED 1962-JAN-20 TO 2025-MAR-21. PREDICTS-> 2025-JUN-16
Units conversion: 1 au= 149597870.700 km, c= 299792.458 km/s, 1 day= 86400.0 s 
Table cut-offs 1: Elevation (-90.0deg=NO ),Airmass (>38.000=NO), Daylight (YES)
Table cut-offs 2: Solar elongation (  0.0,180.0=NO ),Local Hour Angle( 0.0=NO )
Table cut-offs 3: RA/DEC angular rate (     0.0=NO )                           
*******************************************************************************
Initial IAU76/J2000 heliocentric ecliptic osculating elements (au, days, deg.):
  EPOCH=  2458288.5 ! 2018-Jun-19.00 (TDB)         Residual RMS= .22282        
   EC= .960925581819226    QR= 3.698978437965829   TP= 2457875.4618278281      
   OM= 293.0370088641419   W=  320.1514802298502   IN= 46.86534913190896       
  Equivalent ICRF heliocentric cartesian coordinates (au, au/d):
   X= 3.123713088662113E+00  Y=-4.022617727101489E+00  Z=-9.776572180429732E-02
  VX= 7.160289219203867E-03 VY=-1.601856640773144E-03 VZ= 7.695430476273978E-03
Asteroid physical parameters (km, seconds, rotational period in hours):        
   GM= n.a.                RAD= n.a.               ROTPER= n.a.                
   H= 13.69                G= .150                 B-V= n.a.                   
                           ALBEDO= n.a.            STYP= n.a.                  
*******************************************************************************
 Date__(UT)__HR:MN     R.A._________(ICRF)_________DEC
******************************************************
$$SOE
 2018-Nov-22 14:06  m  20 25 55.731439 +07 01 32.08201
 2018-Nov-22 14:07  m  20 25 55.750721 +07 01 32.12272
 2018-Nov-22 14:08  m  20 25 55.770003 +07 01 32.16342
 2018-Nov-22 14:09  m  20 25 55.789286 +07 01 32.20413
 2018-Nov-22 14:10  m  20 25 55.808569 +07 01 32.24485
 2018-Nov-22 14:11  m  20 25 55.827852 +07 01 32.28557
 2018-Nov-22 14:12  m  20 25 55.847136 +07 01 32.32629
 2018-Nov-22 14:13  m  20 25 55.866420 +07 01 32.36702
 2018-Nov-22 14:14  m  20 25 55.885705 +07 01 32.40776
 2018-Nov-22 14:15  m  20 25 55.904990 +07 01 32.44849
 2018-Nov-22 14:16  m  20 25 55.924276 +07 01 32.48924
 2018-Nov-22 14:17  m  20 25 55.943562 +07 01 32.52999
 2018-Nov-22 14:18  m  20 25 55.962848 +07 01 32.57074
 2018-Nov-22 14:19  m  20 25 55.982135 +07 01 32.61150
 2018-Nov-22 14:20  m  20 25 56.001422 +07 01 32.65226
 2018-Nov-22 14:21  m  20 25 56.020709 +07 01 32.69303
 2018-Nov-22 14:22  m  20 25 56.039997 +07 01 32.73380
 2018-Nov-22 14:23  m  20 25 56.059285 +07 01 32.77458
 2018-Nov-22 14:24  m  20 25 56.078574 +07 01 32.81536
 2018-Nov-22 14:25  m  20 25 56.097863 +07 01 32.85615
 2018-Nov-22 14:26  m  20 25 56.117152 +07 01 32.89694
 2018-Nov-22 14:27  m  20 25 56.136442 +07 01 32.93773
 2018-Nov-22 14:28  m  20 25 56.155731 +07 01 32.97853
 2018-Nov-22 14:29  m  20 25 56.175022 +07 01 33.01934
 2018-Nov-22 14:30  m  20 25 56.194312 +07 01 33.06015
 2018-Nov-22 14:31  m  20 25 56.213603 +07 01 33.10096
 2018-Nov-22 14:32  m  20 25 56.232894 +07 01 33.14178
 2018-Nov-22 14:33  m  20 25 56.252185 +07 01 33.18261
 2018-Nov-22 14:34  m  20 25 56.271477 +07 01 33.22344
 2018-Nov-22 14:35  m  20 25 56.290768 +07 01 33.26427
 2018-Nov-22 14:36  m  20 25 56.310060 +07 01 33.30511
 2018-Nov-22 14:37  m  20 25 56.329353 +07 01 33.34595
 2018-Nov-22 14:38  m  20 25 56.348645 +07 01 33.38680
 2018-Nov-22 14:39  m  20 25 56.367938 +07 01 33.42765
 2018-Nov-22 14:40  m  20 25 56.387231 +07 01 33.46851
 2018-Nov-22 14:41  m  20 25 56.406524 +07 01 33.50938
 2018-Nov-22 14:42  m  20 25 56.425818 +07 01 33.55024
 2018-Nov-22 14:43  m  20 25 56.445112 +07 01 33.59111
 2018-Nov-22 14:44  m  20 25 56.464405 +07 01 33.63199
 2018-Nov-22 14:45  m  20 25 56.483699 +07 01 33.67287
 2018-Nov-22 14:46  m  20 25 56.502994 +07 01 33.71376
 2018-Nov-22 14:47  m  20 25 56.522288 +07 01 33.75465
 2018-Nov-22 14:48  m  20 25 56.541583 +07 01 33.79555
 2018-Nov-22 14:49  m  20 25 56.560877 +07 01 33.83645
 2018-Nov-22 14:50  m  20 25 56.580172 +07 01 33.87735
 2018-Nov-22 14:51  m  20 25 56.599467 +07 01 33.91826
 2018-Nov-22 14:52  m  20 25 56.618762 +07 01 33.95918
 2018-Nov-22 14:53  m  20 25 56.638058 +07 01 34.00010
 2018-Nov-22 14:54  m  20 25 56.657353 +07 01 34.04102
 2018-Nov-22 14:55  m  20 25 56.676649 +07 01 34.08195
 2018-Nov-22 14:56  m  20 25 56.695944 +07 01 34.12289
 2018-Nov-22 14:57  m  20 25 56.715240 +07 01 34.16382
 2018-Nov-22 14:58  m  20 25 56.734536 +07 01 34.20477
 2018-Nov-22 14:59  m  20 25 56.753832 +07 01 34.24572
 2018-Nov-22 15:00  m  20 25 56.773128 +07 01 34.28667
 2018-Nov-22 15:01  m  20 25 56.792424 +07 01 34.32763
 2018-Nov-22 15:02  m  20 25 56.811720 +07 01 34.36859
 2018-Nov-22 15:03  m  20 25 56.831016 +07 01 34.40956
 2018-Nov-22 15:04  m  20 25 56.850312 +07 01 34.45053
 2018-Nov-22 15:05  m  20 25 56.869608 +07 01 34.49151
 2018-Nov-22 15:06  m  20 25 56.888905 +07 01 34.53249
 2018-Nov-22 15:07  m  20 25 56.908201 +07 01 34.57347
 2018-Nov-22 15:08  m  20 25 56.927497 +07 01 34.61446
 2018-Nov-22 15:09  m  20 25 56.946793 +07 01 34.65546
 2018-Nov-22 15:10  m  20 25 56.966090 +07 01 34.69646
 2018-Nov-22 15:11  m  20 25 56.985386 +07 01 34.73747
 2018-Nov-22 15:12  m  20 25 57.004682 +07 01 34.77848
 2018-Nov-22 15:13  m  20 25 57.023979 +07 01 34.81949
 2018-Nov-22 15:14  m  20 25 57.043275 +07 01 34.86051
 2018-Nov-22 15:15  m  20 25 57.062571 +07 01 34.90153
 2018-Nov-22 15:16  m  20 25 57.081867 +07 01 34.94256
 2018-Nov-22 15:17  m  20 25 57.101163 +07 01 34.98360
 2018-Nov-22 15:18 Am  20 25 57.120459 +07 01 35.02464
 2018-Nov-22 15:19 Am  20 25 57.139755 +07 01 35.06568
 2018-Nov-22 15:20 Am  20 25 57.159051 +07 01 35.10673
 2018-Nov-22 15:21 Am  20 25 57.178347 +07 01 35.14778
 2018-Nov-22 15:22 Am  20 25 57.197643 +07 01 35.18884
 2018-Nov-22 15:23 Am  20 25 57.216939 +07 01 35.22990
 2018-Nov-22 15:24 Am  20 25 57.236234 +07 01 35.27097
 2018-Nov-22 15:25 Am  20 25 57.255530 +07 01 35.31204
 2018-Nov-22 15:26 Am  20 25 57.274825 +07 01 35.35311
 2018-Nov-22 15:27 Am  20 25 57.294120 +07 01 35.39419
 2018-Nov-22 15:28 Am  20 25 57.313415 +07 01 35.43528
 2018-Nov-22 15:29 Am  20 25 57.332710 +07 01 35.47637
 2018-Nov-22 15:30 Am  20 25 57.352005 +07 01 35.51747
 2018-Nov-22 15:31 Am  20 25 57.371299 +07 01 35.55857
 2018-Nov-22 15:32 Am  20 25 57.390594 +07 01 35.59967
 2018-Nov-22 15:33 Am  20 25 57.409888 +07 01 35.64078
 2018-Nov-22 15:34 Am  20 25 57.429182 +07 01 35.68189
 2018-Nov-22 15:35 Am  20 25 57.448476 +07 01 35.72301
 2018-Nov-22 15:36 Am  20 25 57.467770 +07 01 35.76414
 2018-Nov-22 15:37 Am  20 25 57.487064 +07 01 35.80526
 2018-Nov-22 15:38 Am  20 25 57.506357 +07 01 35.84640
 2018-Nov-22 15:39 Am  20 25 57.525650 +07 01 35.88753
 2018-Nov-22 15:40 Am  20 25 57.544943 +07 01 35.92868
 2018-Nov-22 15:41 Am  20 25 57.564236 +07 01 35.96982
 2018-Nov-22 15:42 Am  20 25 57.583528 +07 01 36.01097
 2018-Nov-22 15:43 Am  20 25 57.602820 +07 01 36.05213
 2018-Nov-22 15:44 Am  20 25 57.622112 +07 01 36.09329
 2018-Nov-22 15:45 Nm  20 25 57.641404 +07 01 36.13446
 2018-Nov-22 15:46 Nm  20 25 57.660695 +07 01 36.17563
 2018-Nov-22 15:47 Nm  20 25 57.679987 +07 01 36.21680
 2018-Nov-22 15:48 Nm  20 25 57.699277 +07 01 36.25798
 2018-Nov-22 15:49 Nm  20 25 57.718568 +07 01 36.29916
 2018-Nov-22 15:50 Nm  20 25 57.737858 +07 01 36.34035
 2018-Nov-22 15:51 Nm  20 25 57.757148 +07 01 36.38155
 2018-Nov-22 15:52 Nm  20 25 57.776438 +07 01 36.42274
 2018-Nov-22 15:53 Nm  20 25 57.795728 +07 01 36.46395
 2018-Nov-22 15:54 Nm  20 25 57.815017 +07 01 36.50515
 2018-Nov-22 15:55 Nm  20 25 57.834305 +07 01 36.54636
 2018-Nov-22 15:56 Nm  20 25 57.853594 +07 01 36.58758
 2018-Nov-22 15:57 Nm  20 25 57.872882 +07 01 36.62880
 2018-Nov-22 15:58 Nm  20 25 57.892170 +07 01 36.67003
 2018-Nov-22 15:59 Nm  20 25 57.911457 +07 01 36.71126
 2018-Nov-22 16:00 Nm  20 25 57.930744 +07 01 36.75249
 2018-Nov-22 16:01 Nm  20 25 57.950031 +07 01 36.79373
 2018-Nov-22 16:02 Nm  20 25 57.969317 +07 01 36.83498
 2018-Nov-22 16:03 Nm  20 25 57.988603 +07 01 36.87622
 2018-Nov-22 16:04 Nm  20 25 58.007888 +07 01 36.91748
 2018-Nov-22 16:05 Nm  20 25 58.027173 +07 01 36.95874
 2018-Nov-22 16:06 Nm  20 25 58.046458 +07 01 37.00000
 2018-Nov-22 16:07 Nm  20 25 58.065742 +07 01 37.04126
 2018-Nov-22 16:08 Nm  20 25 58.085026 +07 01 37.08254
